NORAD_CAT_ID,OBJECT_NAME,OBJECT_TYPE,EPOCH,MEAN_MOTION,ECCENTRICITY,INCLINATION,RA_OF_ASC_NODE,ARG_OF_PERICENTER,MEAN_ANOMALY,BSTAR,MEAN_MOTION_DOT,MEAN_MOTION_DDOT,TLE_LINE0,TLE_LINE1,TLE_LINE2,SEMIMAJOR_AXIS,PERIOD,APOGEE,PERIGEE,DECAYED
55654.0,STARLINK-5070,PAYLOAD,2024-03-19 10:59:43,14.9833662,0.0003274,70.0012,200.58,270.4895,89.5889,7.0217e-05,7.45e-06,0.0,0 STARLINK-5070,1 55654U 23021AC  24079.45814721  .00000745  00000-0  70217-4 0  9994,2 55654  70.0012 200.5800 0003274 270.4895  89.5889 14.98336620 60907,6950.172,96.107,574.313,569.762,0.0
55654.0,STARLINK-5070,PAYLOAD,2024-03-19 12:35:51,14.98337278,0.0003265,70.0013,200.4117,270.5043,89.5742,7.8448e-05,8.43e-06,0.0,0 STARLINK-5070,1 55654U 23021AC  24079.52490652  .00000843  00000-0  78448-4 0  9998,2 55654  70.0013 200.4117 0003265 270.5043  89.5742 14.98337278 60610,6950.17,96.107,574.305,569.766,0.0
55654.0,STARLINK-5070,PAYLOAD,2024-03-20 11:01:45,14.9832311,0.000343,70.0005,198.0544,273.095,86.9816,-6.8368e-05,-9.09e-06,0.0,0 STARLINK-5070,1 55654U 23021AC  24080.45955898 -.00000909  00000-0 -68368-4 0  9995,2 55654  70.0005 198.0544 0003430 273.0950  86.9816 14.98323110 60754,6950.214,96.107,574.463,569.695,0.0
55654.0,STARLINK-5070,PAYLOAD,2024-03-20 14:14:02,14.98316802,0.0003126,70.0006,197.7175,265.3102,94.77,-0.00015044,-1.887e-05,0.0,0 STARLINK-5070,1 55654U 23021AC  24080.59308524 -.00001887  00000-0 -15044-3 0  9996,2 55654  70.0006 197.7175 0003126 265.3102  94.7700 14.98316802 61071,6950.234,96.108,574.271,569.926,0.0
55654.0,STARLINK-5070,PAYLOAD,2024-03-20 17:26:18,14.98323531,0.0003198,70.0007,197.3809,265.6137,94.4656,-6.8077e-05,-9.05e-06,0.0,0 STARLINK-5070,1 55654U 23021AC  24080.72659961 -.00000905  00000-0 -68077-4 0  9990,2 55654  70.0007 197.3809 0003198 265.6137  94.4656 14.98323531 61098,6950.213,96.107,574.301,569.855,0.0
55654.0,STARLINK-5070,PAYLOAD,2024-03-21 11:03:45,14.98336589,0.000281,70.0013,195.5292,267.02,93.0637,6.1742e-05,6.44e-06,0.0,0 STARLINK-5070,1 55654U 23021AC  24081.46094875  .00000644  00000-0  61742-4 0  9999,2 55654  70.0013 195.5292 0002810 267.0200  93.0637 14.98336589 60908,6950.173,96.107,573.991,570.085,0.0
55654.0,STARLINK-5070,PAYLOAD,2024-03-21 14:16:01,14.9834425,0.0003488,70.0,195.1931,271.2368,88.8392,9.5468e-05,1.047e-05,0.0,0 STARLINK-5070,1 55654U 23021AC  24081.59446249  .00001047  00000-0  95468-4 0  9999,2 55654  70.0000 195.1931 0003488 271.2368  88.8392 14.98344250 61224,6950.149,96.106,574.438,569.59,0.0
55654.0,STARLINK-5070,PAYLOAD,2024-03-21 17:28:17,14.98350651,0.0003381,70.0003,194.8555,271.852,88.2252,0.00014874,1.683e-05,0.0,0 STARLINK-5070,1 55654U 23021AC  24081.72797546  .00001683  00000-0  14874-3 0  9990,2 55654  70.0003 194.8555 0003381 271.8520  88.2252 14.98350651 60942,6950.129,96.106,574.344,569.644,0.0
55654.0,STARLINK-5070,PAYLOAD,2024-03-22 12:41:54,14.98328181,0.0002676,70.0025,192.8382,250.8403,109.2467,0.00025823,2.989e-05,0.0,0 STARLINK-5070,1 55654U 23021AC  24082.52910427  .00002989  00000-0  25823-3 0  9990,2 55654  70.0025 192.8382 0002676 250.8403 109.2467 14.98328181 61064,6950.199,96.107,573.923,570.204,0.0
55654.0,STARLINK-5070,PAYLOAD,2024-03-22 14:18:02,14.98328897,0.0002612,70.0023,192.6693,247.1275,112.9609,0.0002902,3.371e-05,0.0,0 STARLINK-5070,1 55654U 23021AC  24082.59586279  .00003371  00000-0  29020-3 0  9990,2 55654  70.0023 192.6693 0002612 247.1275 112.9609 14.98328897 61378,6950.196,96.107,573.877,570.246,0.0
55654.0,STARLINK-5070,PAYLOAD,2024-03-22 17:30:18,14.98336057,0.0002692,70.0017,192.3318,249.4542,110.6328,0.00030672,3.569e-05,0.0,0 STARLINK-5070,1 55654U 23021AC  24082.72937733  .00003569  00000-0  30672-3 0  9994,2 55654  70.0017 192.3318 0002692 249.4542 110.6328 14.98336057 61091,6950.174,96.107,573.91,570.168,0.0
55654.0,STARLINK-5070,PAYLOAD,2024-03-23 12:43:56,14.98325365,0.0002852,70.001,190.3119,267.7054,92.3779,-0.00012935,-1.636e-05,0.0,0 STARLINK-5070,1 55654U 23021AC  24083.53051718 -.00001636  00000-0 -12935-3 0  9991,2 55654  70.0010 190.3119 0002852 267.7054  92.3779 14.98325365 61210,6950.207,96.107,574.054,570.09,0.0
55654.0,STARLINK-5070,PAYLOAD,2024-03-23 17:32:20,14.98330989,0.0002981,70.0008,189.8074,266.5998,93.482,-8.8669e-05,-1.151e-05,0.0,0 STARLINK-5070,1 55654U 23021AC  24083.73079258 -.00001151  00000-0 -88669-4 0  9992,2 55654  70.0008 189.8074 0002981 266.5998  93.4820 14.98330989 61540,6950.19,96.107,574.127,569.983,0.0
55654.0,STARLINK-5070,PAYLOAD,2024-03-24 12:45:55,14.98347034,0.0002732,70.001,187.7871,262.1753,97.9095,0.00012111,1.353e-05,0.0,0 STARLINK-5070,1 55654U 23021AC  24084.53189617  .00001353  00000-0  12111-3 0  9992,2 55654  70.0010 187.7871 0002732 262.1753  97.9095 14.98347034 61362,6950.14,96.106,573.904,570.106,0.0
55654.0,STARLINK-5070,PAYLOAD,2024-03-24 14:22:03,14.98344857,0.0002511,70.0018,187.6192,259.9974,100.0902,0.00011439,1.273e-05,0.0,0 STARLINK-5070,1 55654U 23021AC  24084.59865730  .00001273  00000-0  11439-3 0  9998,2 55654  70.0018 187.6192 0002511 259.9974 100.0902 14.98344857 61676,6950.147,96.106,573.757,570.267,0.0
55654.0,STARLINK-5070,PAYLOAD,2024-03-24 15:58:11,14.98350865,0.0002761,70.0009,187.4509,263.9008,96.1836,0.00017382,1.983e-05,0.0,0 STARLINK-5070,1 55654U 23021AC  24084.66541148  .00001983  00000-0  17382-3 0  9991,2 55654  70.0009 187.4509 0002761 263.9008  96.1836 14.98350865 61684,6950.128,96.106,573.912,570.074,0.0
55654.0,STARLINK-5070,PAYLOAD,2024-03-25 12:47:58,14.98319287,0.0002603,70.001,185.2625,253.2299,106.8574,0.0001081,1.197e-05,0.0,0 STARLINK-5070,1 55654U 23021AC  24085.53331336  .00001197  00000-0  10810-3 0  9990,2 55654  70.0010 185.2625 0002603 253.2299 106.8574 14.98319287 61513,6950.226,96.108,573.9,570.282,0.0
55654.0,STARLINK-5070,PAYLOAD,2024-03-25 16:00:13,14.98327127,0.0002812,70.0004,184.9256,265.2141,94.8697,0.00014191,1.601e-05,0.0,0 STARLINK-5070,1 55654U 23021AC  24085.66682828  .00001601  00000-0  14191-3 0  9995,2 55654  70.0004 184.9256 0002812 265.2141  94.8697 14.98327127 61539,6950.202,96.107,574.021,570.112,0.0
55654.0,STARLINK-5070,PAYLOAD,2024-03-26 12:50:00,14.98321303,0.000315,69.9997,182.7369,267.4543,92.6255,-0.0002301,-2.837e-05,0.0,0 STARLINK-5070,1 55654U 23021AC  24086.53472502 -.00002837  00000-0 -23010-3 0  9992,2 55654  69.9997 182.7369 0003150 267.4543  92.6255 14.98321303 61664,6950.22,96.108,574.274,569.895,0.0
55654.0,STARLINK-5070,PAYLOAD,2024-03-26 14:26:08,14.9831973,0.0003039,69.9999,182.5687,264.9088,95.1724,-0.00022377,-2.761e-05,0.0,0 STARLINK-5070,1 55654U 23021AC  24086.60148698 -.00002761  00000-0 -22377-3 0  9997,2 55654  69.9999 182.5687 0003039 264.9088  95.1724 14.98319730 61973,6950.225,96.108,574.202,569.977,0.0
55654.0,STARLINK-5070,PAYLOAD,2024-03-26 16:02:16,14.9832072,0.0003061,70.0002,182.4011,268.9153,91.1655,-0.00021324,-2.636e-05,0.0,0 STARLINK-5070,1 55654U 23021AC  24086.66824622 -.00002636  00000-0 -21324-3 0  9993,2 55654  70.0002 182.4011 0003061 268.9153  91.1655 14.98320720 61984,6950.222,96.108,574.214,569.959,0.0
55654.0,STARLINK-5070,PAYLOAD,2024-03-27 00:02:56,14.98328972,0.0002941,70.0006,181.5575,268.351,91.7312,-0.00021543,-2.662e-05,0.0,0 STARLINK-5070,1 55654U 23021AC  24087.00204204 -.00002662  00000-0 -21543-3 0  9992,2 55654  70.0006 181.5575 0002941 268.3510  91.7312 14.98328972 61736,6950.196,96.107,574.105,570.017,0.0
55654.0,STARLINK-5070,PAYLOAD,2024-03-27 12:52:00,14.98329587,0.0003026,70.0004,180.2127,262.7583,97.3232,0.00023144,2.67e-05,0.0,0 STARLINK-5070,1 55654U 23021AC  24087.53611394  .00002670  00000-0  23144-3 0  9998,2 55654  70.0004 180.2127 0003026 262.7583  97.3232 14.98329587 61811,6950.194,96.107,574.162,569.956,0.0
55654.0,STARLINK-5070,PAYLOAD,2024-03-27 14:28:08,14.98331028,0.0002943,70.0005,180.0441,262.0625,98.02,0.00025081,2.901e-05,0.0,0 STARLINK-5070,1 55654U 23021AC  24087.60287299  .00002901  00000-0  25081-3 0  9998,2 55654  70.0005 180.0441 0002943 262.0625  98.0200 14.98331028 62127,6950.19,96.107,574.1,570.009,0.0
55654.0,STARLINK-5070,PAYLOAD,2024-03-27 16:04:16,14.98332845,0.000292,70.0006,179.8758,261.7017,98.3811,0.00027455,3.185e-05,0.0,0 STARLINK-5070,1 55654U 23021AC  24087.66963172  .00003185  00000-0  27455-3 0  9997,2 55654  70.0006 179.8758 0002920 261.7017  98.3811 14.98332845 62131,6950.184,96.107,574.079,570.02,0.0
55654.0,STARLINK-5070,PAYLOAD,2024-03-28 12:54:00,14.98333473,0.0003001,70.001,177.6899,264.795,95.2867,0.00038462,4.5e-05,0.0,0 STARLINK-5070,1 55654U 23021AC  24088.53751046  .00004500  00000-0  38462-3 0  9991,2 55654  70.0010 177.6899 0003001 264.7950  95.2867 14.98333473 61963,6950.182,96.107,574.133,569.961,0.0
55654.0,STARLINK-5070,PAYLOAD,2024-03-29 12:56:01,14.98347985,0.0002778,70.0006,175.1624,273.7142,86.3699,-0.00015664,-1.962e-05,0.0,0 STARLINK-5070,1 55654U 23021AC  24089.53890914 -.00001962  00000-0 -15664-3 0  9990,2 55654  70.0006 175.1624 0002778 273.7142  86.3699 14.98347985 62115,6950.137,96.106,573.933,570.072,0.0
55654.0,STARLINK-5070,PAYLOAD,2024-03-29 16:08:17,14.98357013,0.0002748,70.0009,174.8266,269.9608,90.1236,-0.00026236,-3.224e-05,0.0,0 STARLINK-5070,1 55654U 23021AC  24089.67242312 -.00003224  00000-0 -26236-3 0  9998,2 55654  70.0009 174.8266 0002748 269.9608  90.1236 14.98357013 62132,6950.109,96.105,573.884,570.064,0.0
55654.0,STARLINK-5070,PAYLOAD,2024-03-29 22:32:48,14.98374008,0.0003045,70.0014,174.1519,278.6455,81.4359,-0.00063606,-7.683e-05,0.0,0 STARLINK-5070,1 55654U 23021AC  24089.93945530 -.00007683  00000-0 -63606-3 0  9994,2 55654  70.0014 174.1519 0003045 278.6455  81.4359 14.98374008 62479,6950.057,96.104,574.038,569.806,0.0
55654.0,STARLINK-5070,PAYLOAD,2024-03-30 04:57:22,14.98332746,0.0002851,70.0016,173.4808,268.7291,91.3541,6.03e-05,6.27e-06,0.0,0 STARLINK-5070,1 55654U 23021AC  24090.20650896  .00000627  00000-0  60300-4 0  9992,2 55654  70.0016 173.4808 0002851 268.7291  91.3541 14.98332746 62214,6950.184,96.107,574.031,570.068,0.0
